NORAD_CAT_ID,OBJECT_NAME,OBJECT_TYPE,EPOCH,MEAN_MOTION,ECCENTRICITY,INCLINATION,RA_OF_ASC_NODE,ARG_OF_PERICENTER,MEAN_ANOMALY,BSTAR,MEAN_MOTION_DOT,MEAN_MOTION_DDOT,TLE_LINE0,TLE_LINE1,TLE_LINE2,SEMIMAJOR_AXIS,PERIOD,APOGEE,PERIGEE,DECAYED
51111.0,STARLINK-3173,PAYLOAD,2023-02-11 23:13:20,15.08850665,0.0001595,53.2149,284.7323,92.5542,267.5632,0.00056066,8.649e-05,0.0,0 STARLINK-3173,1 51111U 22005H   23042.96759342  .00008649  00000-0  56066-3 0  9997,2 51111  53.2149 284.7323 0001595  92.5542 267.5632 15.08850665 60642,6917.848,95.437,540.816,538.609,0.0
51111.0,STARLINK-3173,PAYLOAD,2023-02-12 08:45:39,15.08830814,0.0001117,53.2144,282.9431,78.4577,281.6541,0.00030736,4.606e-05,0.0,0 STARLINK-3173,1 51111U 22005H   23043.36503532  .00004606  00000-0  30736-3 0  9995,2 51111  53.2144 282.9431 0001117  78.4577 281.6541 15.08830814 60705,6917.908,95.438,540.546,539.001,0.0
51111.0,STARLINK-3173,PAYLOAD,2023-02-13 08:36:26,15.08830726,0.0001791,53.2135,278.4841,75.6313,284.4877,0.00040906,6.227e-05,0.0,0 STARLINK-3173,1 51111U 22005H   23044.35864392  .00006227  00000-0  40906-3 0  9990,2 51111  53.2135 278.4841 0001791  75.6313 284.4877 15.08830726 59742,6917.909,95.438,541.013,538.535,0.0
51111.0,STARLINK-3173,PAYLOAD,2023-02-14 00:30:19,15.08827031,0.0003916,53.2148,275.5117,76.6133,283.5296,0.00015161,2.124e-05,0.0,0 STARLINK-3173,1 51111U 22005H   23045.02106052  .00002124  00000-0  15161-3 0  9994,2 51111  53.2148 275.5117 0003916  76.6133 283.5296 15.08827031 60957,6917.92,95.438,542.494,537.076,0.0
51111.0,STARLINK-3173,PAYLOAD,2023-02-14 14:48:47,15.08835968,7.03e-05,53.2148,272.8344,70.6536,289.4532,0.0003637,5.505e-05,0.0,0 STARLINK-3173,1 51111U 22005H   23045.61721415  .00005505  00000-0  36370-3 0  9996,2 51111  53.2148 272.8344 0000703  70.6536 289.4532 15.08835968 59933,6917.893,95.438,540.244,539.271,0.0
51111.0,STARLINK-3173,PAYLOAD,2023-02-14 22:45:42,15.08857267,9.33e-05,53.2135,271.3483,68.3872,291.7219,0.00080155,0.00012498,0.0,0 STARLINK-3173,1 51111U 22005H   23045.94840779  .00012498  00000-0  80155-3 0  9996,2 51111  53.2135 271.3483 0000933  68.3872 291.7219 15.08857267 61093,6917.828,95.436,540.338,539.047,0.0
51111.0,STARLINK-3173,PAYLOAD,2023-02-15 08:18:01,15.08858429,0.0001137,53.2125,269.565,64.7126,295.3984,0.00061567,9.529e-05,0.0,0 STARLINK-3173,1 51111U 22005H   23046.34584719  .00009529  00000-0  61567-3 0  9997,2 51111  53.2125 269.5650 0001137  64.7126 295.3984 15.08858429 61153,6917.824,95.436,540.476,538.903,0.0
51111.0,STARLINK-3173,PAYLOAD,2023-02-15 09:53:24,15.08856955,8.78e-05,53.2113,269.2667,74.0878,286.0211,0.00052105,8.018e-05,0.0,0 STARLINK-3173,1 51111U 22005H   23046.41208626  .00008018  00000-0  52105-3 0  9995,2 51111  53.2113 269.2667 0000878  74.0878 286.0211 15.08856955 60054,6917.829,95.436,540.301,539.086,0.0
51111.0,STARLINK-3173,PAYLOAD,2023-02-15 21:01:05,15.0886757,8.23e-05,53.2141,267.1831,166.852,193.2493,0.00047197,7.237e-05,0.0,0 STARLINK-3173,1 51111U 22005H   23046.87575332  .00007237  00000-0  47197-3 0  9993,2 51111  53.2141 267.1831 0000823 166.8520 193.2493 15.08867570 60123,6917.796,95.436,540.23,539.092,0.0
51111.0,STARLINK-3173,PAYLOAD,2023-02-16 08:08:47,15.08860479,7.44e-05,53.2135,265.1045,69.4363,290.6709,0.0002794,4.164e-05,0.0,0 STARLINK-3173,1 51111U 22005H   23047.33943538  .00004164  00000-0  27940-3 0  9992,2 51111  53.2135 265.1045 0000744  69.4363 290.6709 15.08860479 61300,6917.818,95.436,540.197,539.168,0.0
51111.0,STARLINK-3173,PAYLOAD,2023-02-16 20:51:52,15.08853221,0.0001491,53.2118,262.7238,98.4687,261.6474,0.00038217,5.802e-05,0.0,0 STARLINK-3173,1 51111U 22005H   23047.86935603  .00005802  00000-0  38217-3 0  9993,2 51111  53.2118 262.7238 0001491  98.4687 261.6474 15.08853221 61381,6917.84,95.437,540.736,538.674,0.0
51111.0,STARLINK-3173,PAYLOAD,2023-02-17 00:02:38,15.08844732,0.000101,53.2135,262.1293,98.9179,261.1928,5.6569e-05,6.13e-06,0.0,0 STARLINK-3173,1 51111U 22005H   23048.00183659  .00000613  00000-0  56569-4 0  9992,2 51111  53.2135 262.1293 0001010  98.9179 261.1928 15.08844732 61402,6917.866,95.437,540.43,539.032,0.0
51111.0,STARLINK-3173,PAYLOAD,2023-02-17 20:42:40,15.08828098,7.49e-05,53.2143,258.2634,103.281,256.8266,-8.3744e-05,-1.62e-05,0.0,0 STARLINK-3173,1 51111U 22005H   23048.86296668 -.00001620  00000-0 -83744-4 0  9997,2 51111  53.2143 258.2634 0000749 103.2810 256.8266 15.08828098 60420,6917.917,95.438,540.3,539.264,0.0
51111.0,STARLINK-3173,PAYLOAD,2023-02-17 22:18:03,15.08822204,9.6e-05,53.2141,257.9652,86.9727,273.1374,-0.0002453,-4.188e-05,0.0,0 STARLINK-3173,1 51111U 22005H   23048.92920912 -.00004188  00000-0 -24530-3 0  9999,2 51111  53.2141 257.9652 0000960  86.9727 273.1374 15.08822204 61542,6917.935,95.439,540.464,539.136,0.0
51111.0,STARLINK-3173,PAYLOAD,2023-02-18 14:11:55,15.08823881,9.02e-05,53.2149,254.9911,95.1112,264.9983,1.3812e-05,-6.8e-07,0.0,0 STARLINK-3173,1 51111U 22005H   23049.59162033 -.00000068  00000-0  13812-4 0  9999,2 51111  53.2149 254.9911 0000902  95.1112 264.9983 15.08823881 60535,6917.93,95.439,540.419,539.171,0.0
51111.0,STARLINK-3173,PAYLOAD,2023-02-18 22:08:51,15.08835791,8.81e-05,53.2147,253.5045,94.9405,265.1688,-8.7613e-06,-4.27e-06,0.0,0 STARLINK-3173,1 51111U 22005H   23049.92281589 -.00000427  00000-0 -87613-5 0  9995,2 51111  53.2147 253.5045 0000881  94.9405 265.1688 15.08835791 61690,6917.893,95.438,540.368,539.149,0.0
51111.0,STARLINK-3173,PAYLOAD,2023-02-19 14:02:42,15.08830706,8.62e-05,53.2146,250.5307,89.9777,270.1314,0.00025416,3.759e-05,0.0,0 STARLINK-3173,1 51111U 22005H   23050.58521648  .00003759  00000-0  25416-3 0  9992,2 51111  53.2146 250.5307 0000862  89.9777 270.1314 15.08830706 60683,6917.909,95.438,540.37,539.177,0.0
51111.0,STARLINK-3173,PAYLOAD,2023-02-20 05:56:33,15.08846702,9.04e-05,53.2134,247.5572,87.1613,272.9482,0.00038434,5.835e-05,0.0,0 STARLINK-3173,1 51111U 22005H   23051.24761490  .00005835  00000-0  38434-3 0  9998,2 51111  53.2134 247.5572 0000904  87.1613 272.9482 15.08846702 61899,6917.86,95.437,540.35,539.1,0.0
51111.0,STARLINK-3173,PAYLOAD,2023-02-21 01:01:10,15.088661,9.06e-05,53.2127,243.9888,87.5032,272.6063,0.0004245,6.479e-05,0.0,0 STARLINK-3173,1 51111U 22005H   23052.04248156  .00006479  00000-0  42450-3 0  9994,2 51111  53.2127 243.9888 0000906  87.5032 272.6063 15.08866100 62013,6917.801,95.436,540.292,539.039,0.0
51111.0,STARLINK-3173,PAYLOAD,2023-02-21 18:30:24,15.08852479,9.38e-05,53.213,240.7169,82.7629,277.3469,0.00015457,2.174e-05,0.0,0 STARLINK-3173,1 51111U 22005H   23052.77112073  .00002174  00000-0  15457-3 0  9997,2 51111  53.2130 240.7169 0000938  82.7629 277.3469 15.08852479 62126,6917.842,95.437,540.356,539.058,0.0
51111.0,STARLINK-3173,PAYLOAD,2023-02-21 21:41:10,15.08854289,9.8e-05,53.2133,240.1219,91.3774,268.7331,0.00022539,3.302e-05,0.0,0 STARLINK-3173,1 51111U 22005H   23052.90359933  .00003302  00000-0  22539-3 0  9993,2 51111  53.2133 240.1219 0000980  91.3774 268.7331 15.08854289 61035,6917.837,95.437,540.38,539.024,0.0
51111.0,STARLINK-3173,PAYLOAD,2023-02-22 11:59:39,15.08840016,9.48e-05,53.214,237.4461,89.6149,270.4952,-6.8631e-05,-1.38e-05,0.0,0 STARLINK-3173,1 51111U 22005H   23053.49976345 -.00001380  00000-0 -68631-4 0  9990,2 51111  53.2140 237.4461 0000948  89.6149 270.4952 15.08840016 62236,6917.88,95.438,540.401,539.09,0.0
51111.0,STARLINK-3173,PAYLOAD,2023-02-22 13:35:02,15.08839617,0.0001004,53.2135,237.148,92.3101,267.8007,-8.0604e-05,-1.57e-05,0.0,0 STARLINK-3173,1 51111U 22005H   23053.56600338 -.00001570  00000-0 -80604-4 0  9999,2 51111  53.2135 237.1480 0001004  92.3101 267.8007 15.08839617 61135,6917.882,95.438,540.441,539.052,0.0
51111.0,STARLINK-3173,PAYLOAD,2023-02-22 15:10:25,15.08841619,9.88e-05,53.2138,236.8504,93.2141,266.8964,-4.2465e-05,-9.64e-06,0.0,0 STARLINK-3173,1 51111U 22005H   23053.63224398 -.00000964  00000-0 -42465-4 0  9994,2 51111  53.2138 236.8504 0000988  93.2141 266.8964 15.08841619 61142,6917.875,95.437,540.424,539.057,0.0
51111.0,STARLINK-3173,PAYLOAD,2023-02-23 05:28:53,15.0884467,9.89e-05,53.2142,234.1746,87.3159,272.7946,-6.1834e-06,-3.86e-06,0.0,0 STARLINK-3173,1 51111U 22005H   23054.22840254 -.00000386  00000-0 -61834-5 0  9995,2 51111  53.2142 234.1746 0000989  87.3159 272.7946 15.08844670 61236,6917.866,95.437,540.415,539.047,0.0
51111.0,STARLINK-3173,PAYLOAD,2023-02-23 21:22:45,15.08849657,0.000107,53.2143,231.201,82.4148,277.6965,-4.7219e-07,-2.95e-06,0.0,0 STARLINK-3173,1 51111U 22005H   23054.89080077 -.00000295  00000-0 -47219-6 0  9998,2 51111  53.2143 231.2010 0001070  82.4148 277.6965 15.08849657 62444,6917.851,95.437,540.456,538.976,0.0
51111.0,STARLINK-3173,PAYLOAD,2023-02-24 11:41:13,15.08836544,0.0001069,53.2147,228.5247,83.5323,276.5791,8.1245e-05,1.005e-05,0.0,0 STARLINK-3173,1 51111U 22005H   23055.48696741  .00001005  00000-0  81245-4 0  9998,2 51111  53.2147 228.5247 0001069  83.5323 276.5791 15.08836544 61427,6917.891,95.438,540.495,539.016,0.0
51111.0,STARLINK-3173,PAYLOAD,2023-02-24 13:16:37,15.08836272,0.0001085,53.2145,228.2268,87.5548,272.5569,7.9915e-05,9.84e-06,0.0,0 STARLINK-3173,1 51111U 22005H   23055.55320746  .00000984  00000-0  79915-4 0  9991,2 51111  53.2145 228.2268 0001085  87.5548 272.5569 15.08836272 62547,6917.892,95.438,540.507,539.006,0.0
51111.0,STARLINK-3173,PAYLOAD,2023-02-24 19:38:09,15.08841243,0.0001039,53.2147,227.0372,86.1739,273.9372,0.00010963,1.457e-05,0.0,0 STARLINK-3173,1 51111U 22005H   23055.81816339  .00001457  00000-0  10963-3 0  9991,2 51111  53.2147 227.0372 0001039  86.1739 273.9372 15.08841243 61470,6917.877,95.437,540.46,539.023,0.0
51111.0,STARLINK-3173,PAYLOAD,2023-02-25 17:53:33,15.08836367,0.000105,53.2151,222.8744,85.5338,274.5774,5.1389e-05,5.3e-06,0.0,0 STARLINK-3173,1 51111U 22005H   23056.74553035  .00000530  00000-0  51389-4 0  9994,2 51111  53.2151 222.8744 0001050  85.5338 274.5774 15.08836367 62725,6917.891,95.438,540.483,539.03,0.0
